start=new Date('2021-10-13T00:00:00.000Z').valueOf();
sats=[{"COUNTRY_CODE":"US","TLE_LINE2":"2 48151  53.0618 176.0338 0001777  70.7036 289.4145 15.06397667 30148","PERIAPSIS":"545.990","CLASSIFICATION_TYPE":"U","GP_ID":"186981351","REF_FRAME":"TEME","ELEMENT_SET_NO":"999","DECAY_DATE":null,"LAUNCH_DATE":"2021-04-07","OBJECT_NAME":"STARLINK-2503","FILE":"3158851","MEAN_MOTION_DDOT":"0.0000000000000","ECCENTRICITY":"0.00017770","PERIOD":"95.592","RCS_SIZE":"LARGE","APOAPSIS":"548.451","MEAN_MOTION":"15.06397667","SEMIMAJOR_AXIS":"6925.356","OBJECT_ID":"2021-027BM","INCLINATION":"53.0618","CENTER_NAME":"EARTH","ARG_OF_PERICENTER":"70.7036","TIME_SYSTEM":"UTC","BSTAR":"0.00006830700000","EPOCH":"2021-10-12T09:19:15.871296","TLE_LINE1":"1 48151U 21027BM  21285.38837814  .00000736  00000-0  68307-4 0  9995","MEAN_MOTION_DOT":"0.00000736","EPHEMERIS_TYPE":"0","MEAN_ELEMENT_THEORY":"SGP4","RA_OF_ASC_NODE":"176.0338","OBJECT_TYPE":"PAYLOAD","NORAD_CAT_ID":"48151","REV_AT_EPOCH":"3014","MEAN_ANOMALY":"289.4145","SITE":"AFETR"},{"NORAD_CAT_ID":"48276","OBJECT_TYPE":"PAYLOAD","SITE":"AFETR","MEAN_ANOMALY":"145.3809","REV_AT_EPOCH":"362","ARG_OF_PERICENTER":"71.0036","CENTER_NAME":"EARTH","OBJECT_ID":"2021-036A","INCLINATION":"53.0516","MEAN_ELEMENT_THEORY":"SGP4","RA_OF_ASC_NODE":"68.2960","MEAN_MOTION_DOT":"-0.00021209","TLE_LINE1":"1 48276U 21036A   21286.00001157 -.00021209  00000-0 -14087-2 0  9990","EPHEMERIS_TYPE":"0","BSTAR":"-0.00140870000000","EPOCH":"2021-10-13T00:00:00.999648","TIME_SYSTEM":"UTC","PERIOD":"95.591","RCS_SIZE":"LARGE","ECCENTRICITY":"0.00014650","MEAN_MOTION_DDOT":"0.0000000000000","FILE":"3159338","SEMIMAJOR_AXIS":"6925.312","MEAN_MOTION":"15.06412027","APOAPSIS":"548.191","GP_ID":"187014476","REF_FRAME":"TEME","TLE_LINE2":"2 48276  53.0516  68.2960 0001465  71.0036 145.3809 15.06412027  3622","CLASSIFICATION_TYPE":"U","PERIAPSIS":"546.162","COUNTRY_CODE":"US","OBJECT_NAME":"STARLINK-2567","DECAY_DATE":null,"LAUNCH_DATE":"2021-04-29","ELEMENT_SET_NO":"999"},{"CENTER_NAME":"EARTH","OBJECT_ID":"2021-036B","INCLINATION":"53.0479","ARG_OF_PERICENTER":"343.9085","BSTAR":"0.00009148400000","EPOCH":"2021-10-13T00:00:00.999648","TIME_SYSTEM":"UTC","MEAN_ELEMENT_THEORY":"SGP4","RA_OF_ASC_NODE":"60.0714","MEAN_MOTION_DOT":"0.00012266","TLE_LINE1":"1 48277U 21036B   21286.00001157  .00012266  00000-0  91484-4 0  9990","EPHEMERIS_TYPE":"0","NORAD_CAT_ID":"48277","OBJECT_TYPE":"PAYLOAD","SITE":"AFETR","MEAN_ANOMALY":"261.6005","REV_AT_EPOCH":"369","COUNTRY_CODE":"US","GP_ID":"187015226","REF_FRAME":"TEME","TLE_LINE2":"2 48277  53.0479  60.0714 0004629 343.9085 261.6005 15.73244890  3690","CLASSIFICATION_TYPE":"U","PERIAPSIS":"346.518","ELEMENT_SET_NO":"999","OBJECT_NAME":"STARLINK-2569","DECAY_DATE":null,"LAUNCH_DATE":"2021-04-29","FILE":"3159338","PERIOD":"91.531","RCS_SIZE":"LARGE","MEAN_MOTION_DDOT":"0.0000000000000","ECCENTRICITY":"0.00046290","APOAPSIS":"352.746","SEMIMAJOR_AXIS":"6727.767","MEAN_MOTION":"15.73244890"},{"TLE_LINE2":"2 48278  53.0480  60.0690 0004609 340.3625 265.8031 15.73221436  3679","CLASSIFICATION_TYPE":"U","PERIAPSIS":"346.598","GP_ID":"187015478","REF_FRAME":"TEME","COUNTRY_CODE":"US","DECAY_DATE":null,"LAUNCH_DATE":"2021-04-29","OBJECT_NAME":"STARLINK-2543","ELEMENT_SET_NO":"999","ECCENTRICITY":"0.00046090","MEAN_MOTION_DDOT":"0.0000000000000","PERIOD":"91.532","RCS_SIZE":"LARGE","FILE":"3159338","MEAN_MOTION":"15.73221436","SEMIMAJOR_AXIS":"6727.834","APOAPSIS":"352.800","ARG_OF_PERICENTER":"340.3625","OBJECT_ID":"2021-036C","INCLINATION":"53.0480","CENTER_NAME":"EARTH","MEAN_MOTION_DOT":"0.00037734","TLE_LINE1":"1 48278U 21036C   21286.00001157  .00037734  00000-0  27166-3 0  9993","EPHEMERIS_TYPE":"0","MEAN_ELEMENT_THEORY":"SGP4","RA_OF_ASC_NODE":"60.0690","TIME_SYSTEM":"UTC","EPOCH":"2021-10-13T00:00:00.999648","BSTAR":"0.00027166000000","OBJECT_TYPE":"PAYLOAD","NORAD_CAT_ID":"48278","REV_AT_EPOCH":"367","MEAN_ANOMALY":"265.8031","SITE":"AFETR"},{"CENTER_NAME":"EARTH","INCLINATION":"53.0478","OBJECT_ID":"2021-036D","ARG_OF_PERICENTER":"341.2335","EPOCH":"2021-10-13T00:00:00.999648","BSTAR":"-0.00011116000000","TIME_SYSTEM":"UTC","RA_OF_ASC_NODE":"60.0673","MEAN_ELEMENT_THEORY":"SGP4","EPHEMERIS_TYPE":"0","TLE_LINE1":"1 48279U 21036D   21286.00001157 -.00016265  00000-0 -11116-3 0  9990","MEAN_MOTION_DOT":"-0.00016265","NORAD_CAT_ID":"48279","OBJECT_TYPE":"PAYLOAD","SITE":"AFETR","MEAN_ANOMALY":"265.5145","REV_AT_EPOCH":"369","COUNTRY_CODE":"US","REF_FRAME":"TEME","GP_ID":"187016228","TLE_LINE2":"2 48279  53.0478  60.0673 0004519 341.2335 265.5145 15.73282474  3690","PERIAPSIS":"346.485","CLASSIFICATION_TYPE":"U","ELEMENT_SET_NO":"999","OBJECT_NAME":"STARLINK-2580","LAUNCH_DATE":"2021-04-29","DECAY_DATE":null,"FILE":"3159338","RCS_SIZE":"LARGE","PERIOD":"91.528","MEAN_MOTION_DDOT":"0.0000000000000","ECCENTRICITY":"0.00045190","APOAPSIS":"352.565","MEAN_MOTION":"15.73282474","SEMIMAJOR_AXIS":"6727.660"},{"CENTER_NAME":"EARTH","INCLINATION":"53.0543","OBJECT_ID":"2021-036E","ARG_OF_PERICENTER":"78.9709","EPOCH":"2021-10-12T06:07:32.059488","BSTAR":"0.00011765000000","TIME_SYSTEM":"UTC","RA_OF_ASC_NODE":"121.6365","MEAN_ELEMENT_THEORY":"SGP4","EPHEMERIS_TYPE":"0","MEAN_MOTION_DOT":"0.00001471","TLE_LINE1":"1 48280U 21036E   21285.25523217  .00001471  00000-0  11765-3 0  9995","NORAD_CAT_ID":"48280","OBJECT_TYPE":"PAYLOAD","SITE":"AFETR","REV_AT_EPOCH":"2552","MEAN_ANOMALY":"281.1511","COUNTRY_CODE":"US","GP_ID":"186982367","REF_FRAME":"TEME","TLE_LINE2":"2 48280  53.0543 121.6365 0002055  78.9709 281.1511 15.06390098 25524","PERIAPSIS":"545.821","CLASSIFICATION_TYPE":"U","ELEMENT_SET_NO":"999","OBJECT_NAME":"STARLINK-2565","LAUNCH_DATE":"2021-04-29","DECAY_DATE":null,"FILE":"3158851","RCS_SIZE":"LARGE","PERIOD":"95.593","ECCENTRICITY":"0.00020550","MEAN_MOTION_DDOT":"0.0000000000000","APOAPSIS":"548.667","SEMIMAJOR_AXIS":"6925.379","MEAN_MOTION":"15.06390098"},{"ECCENTRICITY":"0.00016200","MEAN_MOTION_DDOT":"0.0000000000000","RCS_SIZE":"LARGE","PERIOD":"95.592","FILE":"3159338","SEMIMAJOR_AXIS":"6925.338","MEAN_MOTION":"15.06403422","APOAPSIS":"548.325","PERIAPSIS":"546.081","TLE_LINE2":"2 48281  53.0552  99.7919 0001620  87.7385 272.3789 15.06403422 25862","CLASSIFICATION_TYPE":"U","REF_FRAME":"TEME","GP_ID":"187014727","COUNTRY_CODE":"US","LAUNCH_DATE":"2021-04-29","DECAY_DATE":null,"OBJECT_NAME":"STARLINK-2520","ELEMENT_SET_NO":"999","OBJECT_TYPE":"PAYLOAD","NORAD_CAT_ID":"48281","REV_AT_EPOCH":"2586","MEAN_ANOMALY":"272.3789","SITE":"AFETR","ARG_OF_PERICENTER":"87.7385","INCLINATION":"53.0552","OBJECT_ID":"2021-036F","CENTER_NAME":"EARTH","EPHEMERIS_TYPE":"0","TLE_LINE1":"1 48281U 21036F   21285.66620269 -.00000891  00000-0 -40943-4 0  9994","MEAN_MOTION_DOT":"-0.00000891","RA_OF_ASC_NODE":"99.7919","MEAN_ELEMENT_THEORY":"SGP4","TIME_SYSTEM":"UTC","BSTAR":"-0.00004094300000","EPOCH":"2021-10-12T15:59:19.912416"},{"TLE_LINE2":"2 48282  53.0613 104.6868 0001511  95.5077 264.6085 15.06397079 25801","PERIAPSIS":"546.176","CLASSIFICATION_TYPE":"U","GP_ID":"187015978","REF_FRAME":"TEME","COUNTRY_CODE":"US","DECAY_DATE":null,"LAUNCH_DATE":"2021-04-29","OBJECT_NAME":"STARLINK-2558","ELEMENT_SET_NO":"999","ECCENTRICITY":"0.00015110","MEAN_MOTION_DDOT":"0.0000000000000","PERIOD":"95.592","RCS_SIZE":"LARGE","FILE":"3159338","SEMIMAJOR_AXIS":"6925.358","MEAN_MOTION":"15.06397079","APOAPSIS":"548.269","ARG_OF_PERICENTER":"95.5077","OBJECT_ID":"2021-036G","INCLINATION":"53.0613","CENTER_NAME":"EARTH","MEAN_MOTION_DOT":"0.00002416","TLE_LINE1":"1 48282U 21036G   21285.68973380  .00002416  00000-0  18102-3 0  9996","EPHEMERIS_TYPE":"0","MEAN_ELEMENT_THEORY":"SGP4","RA_OF_ASC_NODE":"104.6868","TIME_SYSTEM":"UTC","EPOCH":"2021-10-12T16:33:13.000320","BSTAR":"0.00018102000000","OBJECT_TYPE":"PAYLOAD","NORAD_CAT_ID":"48282","MEAN_ANOMALY":"264.6085","REV_AT_EPOCH":"2580","SITE":"AFETR"},{"OBJECT_TYPE":"PAYLOAD","NORAD_CAT_ID":"48283","REV_AT_EPOCH":"2581","MEAN_ANOMALY":"268.4318","SITE":"AFETR","INCLINATION":"53.0622","OBJECT_ID":"2021-036H","CENTER_NAME":"EARTH","ARG_OF_PERICENTER":"91.6890","TIME_SYSTEM":"UTC","EPOCH":"2021-10-12T18:03:23.939424","BSTAR":"-0.00007875100000","EPHEMERIS_TYPE":"0","TLE_LINE1":"1 48283U 21036H   21285.75236041 -.00001455  00000-0 -78751-4 0  9992","MEAN_MOTION_DOT":"-0.00001455","RA_OF_ASC_NODE":"104.3995","MEAN_ELEMENT_THEORY":"SGP4","FILE":"3159338","ECCENTRICITY":"0.00019080","MEAN_MOTION_DDOT":"0.0000000000000","RCS_SIZE":"LARGE","PERIOD":"95.591","APOAPSIS":"548.490","MEAN_MOTION":"15.06414550","SEMIMAJOR_AXIS":"6925.304","COUNTRY_CODE":"US","PERIAPSIS":"545.848","TLE_LINE2":"2 48283  53.0622 104.3995 0001908  91.6890 268.4318 15.06414550 25816","CLASSIFICATION_TYPE":"U","GP_ID":"187015729","REF_FRAME":"TEME","ELEMENT_SET_NO":"999","LAUNCH_DATE":"2021-04-29","DECAY_DATE":null,"OBJECT_NAME":"STARLINK-2516"},{"APOAPSIS":"548.679","MEAN_MOTION":"15.06394549","SEMIMAJOR_AXIS":"6925.365","FILE":"3159338","PERIOD":"95.592","RCS_SIZE":"LARGE","MEAN_MOTION_DDOT":"0.0000000000000","ECCENTRICITY":"0.00020920","ELEMENT_SET_NO":"999","OBJECT_NAME":"STARLINK-2564","DECAY_DATE":null,"LAUNCH_DATE":"2021-04-29","COUNTRY_CODE":"US","GP_ID":"187014477","REF_FRAME":"TEME","CLASSIFICATION_TYPE":"U","TLE_LINE2":"2 48284  53.0496 104.7403 0002092  87.3302 272.7927 15.06394549 25795","PERIAPSIS":"545.781","SITE":"AFETR","REV_AT_EPOCH":"2579","MEAN_ANOMALY":"272.7927","NORAD_CAT_ID":"48284","OBJECT_TYPE":"PAYLOAD","BSTAR":"0.00004203600000","EPOCH":"2021-10-12T16:22:33.731040","TIME_SYSTEM":"UTC","MEAN_ELEMENT_THEORY":"SGP4","RA_OF_ASC_NODE":"104.7403","TLE_LINE1":"1 48284U 21036J   21285.68233485  .00000344  00000-0  42036-4 0  9995","MEAN_MOTION_DOT":"0.00000344","EPHEMERIS_TYPE":"0","CENTER_NAME":"EARTH","OBJECT_ID":"2021-036J","INCLINATION":"53.0496","ARG_OF_PERICENTER":"87.3302"}];
